NOAA 1                  
1 04793U 70106A   26064.75098338 -.00000033  00000+0  60580-4 0  9997
2 04793 101.3521 103.9471 0031714 188.5968 286.3069 12.54049231527722
NOAA 2 (ITOS-D)         
1 06235U 72082A   26064.90541962 -.00000041  00000+0  34152-4 0  9993
2 06235 102.0167  82.3159 0004008  12.4952  52.7610 12.53211713442016
NOAA 3                  
1 06920U 73086A   26064.96279373 -.00000043  00000+0  28136-4 0  9996
2 06920 102.2908  77.9048 0006201 315.9665 111.1684 12.40391666369109
NOAA 4                  
1 07529U 74089A   26064.96587435 -.00000050  00000+0 -21848-4 0  9999
2 07529 102.0073  76.6571 0009143  35.7967  34.0353 12.53201583346599
NOAA 5                  
1 09057U 76077A   26064.96223374 -.00000036  00000+0  77278-4 0  9996
2 09057 102.2955  50.4494 0009780 167.4462 259.5249 12.37828285241703
TIROS N                 
1 11060U 78096A   26064.93434579  .00000196  00000+0  11311-3 0  9995
2 11060  98.4638  90.6208 0010540 175.9194 184.2070 14.19336393664100
NOAA 6                  
1 11416U 79057A   26064.92688311  .00000374  00000+0  14536-3 0  9992
2 11416  98.5755  95.1032 0009524 198.2727 161.8117 14.35430130436147
NOAA 7                  
1 12553U 81059A   26064.70909301  .00000089  00000+0  65301-4 0  9991
2 12553  98.8067 132.7937 0011154 199.2807 160.7948 14.17772357310087
NOAA 8                  
1 13923U 83022A   26064.98530061  .00000177  00000+0  86315-4 0  9994
2 13923  98.7374  77.7704 0014461 196.5492 163.5219 14.29765058236322
NOAA 9                  
1 15427U 84123A   26064.90551470  .00000147  00000+0  96198-4 0  9994
2 15427  99.1099  89.1004 0013695 283.1559 147.6539 14.17037396128790
NOAA 10                 
1 16969U 86073A   26064.90249229  .00000198  00000+0  95450-4 0  9994
2 16969  98.6997  58.3028 0011144 301.3023 116.7484 14.29142314 54663
NOAA 11                 
1 19531U 88089A   26064.75832653  .00000107  00000+0  76170-4 0  9991
2 19531  98.6093  13.9313 0010138 231.7654 128.2609 14.15819697932842
NOAA 12                 
1 21263U 91032A   26064.96638890  .00000150  00000+0  79936-4 0  9999
2 21263  98.6150  55.0257 0013129 334.5627  25.4906 14.26716020810245
NOAA 13                 
1 22739U 93050A   26064.75686474  .00000177  00000+0  11640-3 0  9994
2 22739  98.6928  12.6138 0010507  67.1411 293.0870 14.13634815678760
NOAA 14                 
1 23455U 94089A   26064.93344080  .00000071  00000+0  58427-4 0  9995
2 23455  98.5017  39.3268 0009984  26.7762 333.3926 14.14654164608607
NOAA 15                 
1 25338U 98030A   26064.98277956  .00000172  00000+0  88254-4 0  9992
2 25338  98.5166  88.3608 0009130 292.3829  67.6384 14.27110699446579
NOAA 16                 
1 26536U 00055A   26064.98898527  .00000121  00000+0  85616-4 0  9999
2 26536  98.4706  84.6845 0009447 233.8623 126.1677 14.13896907609142
