[{"OBJECT_NAME":"NOAA 1","OBJECT_ID":"1970-106A","EPOCH":"2026-03-05T18:01:24.964032","MEAN_MOTION":12.54049231,"ECCENTRICITY":0.00317142,"INCLINATION":101.3521,"RA_OF_ASC_NODE":103.9471,"ARG_OF_PERICENTER":188.5968,"MEAN_ANOMALY":286.3069,"EPHEMERIS_TYPE":0,"CLASSIFICATION_TYPE":"U","NORAD_CAT_ID":4793,"ELEMENT_SET_NO":999,"REV_AT_EPOCH":52772,"BSTAR":6.0579702e-5,"MEAN_MOTION_DOT":-3.3e-7,"MEAN_MOTION_DDOT":0},{"OBJECT_NAME":"NOAA 2 (ITOS-D)","OBJECT_ID":"1972-082A","EPOCH":"2026-03-05T21:43:48.255168","MEAN_MOTION":12.53211713,"ECCENTRICITY":0.00040084,"INCLINATION":102.0167,"RA_OF_ASC_NODE":82.3159,"ARG_OF_PERICENTER":12.4952,"MEAN_ANOMALY":52.761,"EPHEMERIS_TYPE":0,"CLASSIFICATION_TYPE":"U","NORAD_CAT_ID":6235,"ELEMENT_SET_NO":999,"REV_AT_EPOCH":44201,"BSTAR":3.415227e-5,"MEAN_MOTION_DOT":-4.1e-7,"MEAN_MOTION_DDOT":0},{"OBJECT_NAME":"NOAA 3","OBJECT_ID":"1973-086A","EPOCH":"2026-03-05T23:06:25.378272","MEAN_MOTION":12.40391666,"ECCENTRICITY":0.00062012,"INCLINATION":102.2908,"RA_OF_ASC_NODE":77.9048,"ARG_OF_PERICENTER":315.9665,"MEAN_ANOMALY":111.1684,"EPHEMERIS_TYPE":0,"CLASSIFICATION_TYPE":"U","NORAD_CAT_ID":6920,"ELEMENT_SET_NO":999,"REV_AT_EPOCH":36910,"BSTAR":2.8135859e-5,"MEAN_MOTION_DOT":-4.3e-7,"MEAN_MOTION_DDOT":0},{"OBJECT_NAME":"NOAA 4","OBJECT_ID":"1974-089A","EPOCH":"2026-03-05T23:10:51.543840","MEAN_MOTION":12.53201583,"ECCENTRICITY":0.00091438,"INCLINATION":102.0073,"RA_OF_ASC_NODE":76.6571,"ARG_OF_PERICENTER":35.7967,"MEAN_ANOMALY":34.0353,"EPHEMERIS_TYPE":0,"CLASSIFICATION_TYPE":"U","NORAD_CAT_ID":7529,"ELEMENT_SET_NO":999,"REV_AT_EPOCH":34659,"BSTAR":-2.1847559e-5,"MEAN_MOTION_DOT":-5.0e-7,"MEAN_MOTION_DDOT":0},{"OBJECT_NAME":"NOAA 5","OBJECT_ID":"1976-077A","EPOCH":"2026-03-05T23:05:36.995136","MEAN_MOTION":12.37828285,"ECCENTRICITY":0.00097809,"INCLINATION":102.2955,"RA_OF_ASC_NODE":50.4494,"ARG_OF_PERICENTER":167.4462,"MEAN_ANOMALY":259.5249,"EPHEMERIS_TYPE":0,"CLASSIFICATION_TYPE":"U","NORAD_CAT_ID":9057,"ELEMENT_SET_NO":999,"REV_AT_EPOCH":24170,"BSTAR":7.7278355e-5,"MEAN_MOTION_DOT":-3.6e-7,"MEAN_MOTION_DDOT":0},{"OBJECT_NAME":"TIROS N","OBJECT_ID":"1978-096A","EPOCH":"2026-03-05T22:25:27.476256","MEAN_MOTION":14.19336393,"ECCENTRICITY":0.00105409,"INCLINATION":98.4638,"RA_OF_ASC_NODE":90.6208,"ARG_OF_PERICENTER":175.9194,"MEAN_ANOMALY":184.207,"EPHEMERIS_TYPE":0,"CLASSIFICATION_TYPE":"U","NORAD_CAT_ID":11060,"ELEMENT_SET_NO":999,"REV_AT_EPOCH":66410,"BSTAR":0.00011310556,"MEAN_MOTION_DOT":1.96e-6,"MEAN_MOTION_DDOT":0},{"OBJECT_NAME":"NOAA 6","OBJECT_ID":"1979-057A","EPOCH":"2026-03-05T22:14:42.700704","MEAN_MOTION":14.3543013,"ECCENTRICITY":0.00095248,"INCLINATION":98.5755,"RA_OF_ASC_NODE":95.1032,"ARG_OF_PERICENTER":198.2727,"MEAN_ANOMALY":161.8117,"EPHEMERIS_TYPE":0,"CLASSIFICATION_TYPE":"U","NORAD_CAT_ID":11416,"ELEMENT_SET_NO":999,"REV_AT_EPOCH":43614,"BSTAR":0.00014536212,"MEAN_MOTION_DOT":3.74e-6,"MEAN_MOTION_DDOT":0},{"OBJECT_NAME":"NOAA 7","OBJECT_ID":"1981-059A","EPOCH":"2026-03-05T17:01:05.636064","MEAN_MOTION":14.17772357,"ECCENTRICITY":0.00111543,"INCLINATION":98.8067,"RA_OF_ASC_NODE":132.7937,"ARG_OF_PERICENTER":199.2807,"MEAN_ANOMALY":160.7948,"EPHEMERIS_TYPE":0,"CLASSIFICATION_TYPE":"U","NORAD_CAT_ID":12553,"ELEMENT_SET_NO":999,"REV_AT_EPOCH":31008,"BSTAR":6.5301279e-5,"MEAN_MOTION_DOT":8.9e-7,"MEAN_MOTION_DDOT":0},{"OBJECT_NAME":"NOAA 8","OBJECT_ID":"1983-022A","EPOCH":"2026-03-05T23:38:49.972704","MEAN_MOTION":14.29765058,"ECCENTRICITY":0.0014461,"INCLINATION":98.7374,"RA_OF_ASC_NODE":77.7704,"ARG_OF_PERICENTER":196.5492,"MEAN_ANOMALY":163.5219,"EPHEMERIS_TYPE":0,"CLASSIFICATION_TYPE":"U","NORAD_CAT_ID":13923,"ELEMENT_SET_NO":999,"REV_AT_EPOCH":23632,"BSTAR":8.6314735e-5,"MEAN_MOTION_DOT":1.77e-6,"MEAN_MOTION_DDOT":0},{"OBJECT_NAME":"NOAA 9","OBJECT_ID":"1984-123A","EPOCH":"2026-03-05T21:43:56.470080","MEAN_MOTION":14.17037396,"ECCENTRICITY":0.00136954,"INCLINATION":99.1099,"RA_OF_ASC_NODE":89.1004,"ARG_OF_PERICENTER":283.1559,"MEAN_ANOMALY":147.6539,"EPHEMERIS_TYPE":0,"CLASSIFICATION_TYPE":"U","NORAD_CAT_ID":15427,"ELEMENT_SET_NO":999,"REV_AT_EPOCH":12879,"BSTAR":9.6197681e-5,"MEAN_MOTION_DOT":1.47e-6,"MEAN_MOTION_DDOT":0},{"OBJECT_NAME":"NOAA 10","OBJECT_ID":"1986-073A","EPOCH":"2026-03-05T21:39:35.333856","MEAN_MOTION":14.29142314,"ECCENTRICITY":0.00111446,"INCLINATION":98.6997,"RA_OF_ASC_NODE":58.3028,"ARG_OF_PERICENTER":301.3023,"MEAN_ANOMALY":116.7484,"EPHEMERIS_TYPE":0,"CLASSIFICATION_TYPE":"U","NORAD_CAT_ID":16969,"ELEMENT_SET_NO":999,"REV_AT_EPOCH":5466,"BSTAR":9.5449893e-5,"MEAN_MOTION_DOT":1.98e-6,"MEAN_MOTION_DDOT":0},{"OBJECT_NAME":"NOAA 11","OBJECT_ID":"1988-089A","EPOCH":"2026-03-05T18:11:59.412192","MEAN_MOTION":14.15819697,"ECCENTRICITY":0.00101388,"INCLINATION":98.6093,"RA_OF_ASC_NODE":13.9313,"ARG_OF_PERICENTER":231.7654,"MEAN_ANOMALY":128.2609,"EPHEMERIS_TYPE":0,"CLASSIFICATION_TYPE":"U","NORAD_CAT_ID":19531,"ELEMENT_SET_NO":999,"REV_AT_EPOCH":93284,"BSTAR":7.6170433e-5,"MEAN_MOTION_DOT":1.07e-6,"MEAN_MOTION_DDOT":0},{"OBJECT_NAME":"NOAA 12","OBJECT_ID":"1991-032A","EPOCH":"2026-03-05T23:11:36.000960","MEAN_MOTION":14.2671602,"ECCENTRICITY":0.00131294,"INCLINATION":98.615,"RA_OF_ASC_NODE":55.0257,"ARG_OF_PERICENTER":334.5627,"MEAN_ANOMALY":25.4906,"EPHEMERIS_TYPE":0,"CLASSIFICATION_TYPE":"U","NORAD_CAT_ID":21263,"ELEMENT_SET_NO":999,"REV_AT_EPOCH":81024,"BSTAR":7.9935809e-5,"MEAN_MOTION_DOT":1.5e-6,"MEAN_MOTION_DDOT":0},{"OBJECT_NAME":"NOAA 13","OBJECT_ID":"1993-050A","EPOCH":"2026-03-05T18:09:53.113536","MEAN_MOTION":14.13634815,"ECCENTRICITY":0.00105074,"INCLINATION":98.6928,"RA_OF_ASC_NODE":12.6138,"ARG_OF_PERICENTER":67.1411,"MEAN_ANOMALY":293.087,"EPHEMERIS_TYPE":0,"CLASSIFICATION_TYPE":"U","NORAD_CAT_ID":22739,"ELEMENT_SET_NO":999,"REV_AT_EPOCH":67876,"BSTAR":0.00011639878,"MEAN_MOTION_DOT":1.77e-6,"MEAN_MOTION_DDOT":0},{"OBJECT_NAME":"NOAA 14","OBJECT_ID":"1994-089A","EPOCH":"2026-03-05T22:24:09.285120","MEAN_MOTION":14.14654164,"ECCENTRICITY":0.00099843,"INCLINATION":98.5017,"RA_OF_ASC_NODE":39.3268,"ARG_OF_PERICENTER":26.7762,"MEAN_ANOMALY":333.3926,"EPHEMERIS_TYPE":0,"CLASSIFICATION_TYPE":"U","NORAD_CAT_ID":23455,"ELEMENT_SET_NO":999,"REV_AT_EPOCH":60860,"BSTAR":5.8426869e-5,"MEAN_MOTION_DOT":7.1e-7,"MEAN_MOTION_DDOT":0},{"OBJECT_NAME":"NOAA 15","OBJECT_ID":"1998-030A","EPOCH":"2026-03-05T23:35:12.153984","MEAN_MOTION":14.27110699,"ECCENTRICITY":0.00091307,"INCLINATION":98.5166,"RA_OF_ASC_NODE":88.3608,"ARG_OF_PERICENTER":292.3829,"MEAN_ANOMALY":67.6384,"EPHEMERIS_TYPE":0,"CLASSIFICATION_TYPE":"U","NORAD_CAT_ID":25338,"ELEMENT_SET_NO":999,"REV_AT_EPOCH":44657,"BSTAR":8.8253752e-5,"MEAN_MOTION_DOT":1.72e-6,"MEAN_MOTION_DDOT":0},{"OBJECT_NAME":"NOAA 16","OBJECT_ID":"2000-055A","EPOCH":"2026-03-05T23:44:08.327328","MEAN_MOTION":14.13896907,"ECCENTRICITY":0.00094477,"INCLINATION":98.4706,"RA_OF_ASC_NODE":84.6845,"ARG_OF_PERICENTER":233.8623,"MEAN_ANOMALY":126.1677,"EPHEMERIS_TYPE":0,"CLASSIFICATION_TYPE":"U","NORAD_CAT_ID":26536,"ELEMENT_SET_NO":999,"REV_AT_EPOCH":60914,"BSTAR":8.5615914e-5,"MEAN_MOTION_DOT":1.21e-6,"MEAN_MOTION_DDOT":0}]
